sat02531
1 02531U 63014AK  20044.38953906  .00000027  00000-0  10864-1 0  9997
2 02531  87.2771  27.8361 0250556 255.8127 101.4775  8.67344385226558
